{
  "type": "FeatureCollection",
  "features": [
    {
      "type": "Feature",
      "properties": {
        "norad_id": 43260,
        "name": "GAOFEN-1 03",
        "group": "resource",
        "lat": 23.291854143840254,
        "lon": 34.76621358698166,
        "alt_km": 638.8494090172735,
        "timestamp": "2025-12-06T14:35:36.785076+00:00",
        "meta_object_name": "GAOFEN-1 03",
        "meta_object_id": "2018-031B",
        "meta_epoch": "2025-12-06T07:58:52.153248",
        "meta_mean_motion": 14.7641697,
        "meta_eccentricity": 0.00023981,
        "meta_inclination": 98.0806,
        "meta_ra_of_asc_node": 37.9971,
        "meta_arg_of_pericenter": 348.8152,
        "meta_mean_anomaly": 11.3004,
        "meta_ephemeris_type": 0,
        "meta_classification_type": "U",
        "meta_norad_cat_id": 43260,
        "meta_element_set_no": 999,
        "meta_rev_at_epoch": 41423,
        "meta_bstar": 0.00031574585,
        "meta_mean_motion_dot": 2.143e-05,
        "meta_mean_motion_ddot": 0,
        "tle_line1": "1 43260U 18031B   25340.33254807  .00002143  00000+0  31575-3 0  9997",
        "tle_line2": "2 43260  98.0806  37.9971 0002398 348.8152  11.3004 14.76416970414235"
      },
      "geometry": {
        "type": "Point",
        "coordinates": [
          34.76621358698166,
          23.291854143840254
        ]
      }
    },
    {
      "type": "Feature",
      "properties": {
        "norad_id": 43262,
        "name": "GAOFEN-1 04",
        "group": "resource",
        "lat": 26.872612928001267,
        "lon": -137.43002710693838,
        "alt_km": 639.6221723507642,
        "timestamp": "2025-12-06T14:35:36.785086+00:00",
        "meta_object_name": "GAOFEN-1 04",
        "meta_object_id": "2018-031D",
        "meta_epoch": "2025-12-06T07:23:52.998720",
        "meta_mean_motion": 14.7643005,
        "meta_eccentricity": 0.00012465,
        "meta_inclination": 98.0815,
        "meta_ra_of_asc_node": 38.1412,
        "meta_arg_of_pericenter": 62.3123,
        "meta_mean_anomaly": 297.8213,
        "meta_ephemeris_type": 0,
        "meta_classification_type": "U",
        "meta_norad_cat_id": 43262,
        "meta_element_set_no": 999,
        "meta_rev_at_epoch": 41422,
        "meta_bstar": 0.00030992811,
        "meta_mean_motion_dot": 2.104e-05,
        "meta_mean_motion_ddot": 0,
        "tle_line1": "1 43262U 18031D   25340.30825230  .00002104  00000+0  30993-3 0  9990",
        "tle_line2": "2 43262  98.0815  38.1412 0001246  62.3123 297.8213 14.76430050414224"
      },
      "geometry": {
        "type": "Point",
        "coordinates": [
          -137.43002710693838,
          26.872612928001267
        ]
      }
    },
    {
      "type": "Feature",
      "properties": {
        "norad_id": 43437,
        "name": "SENTINEL-3B",
        "group": "resource",
        "lat": -25.149429283842323,
        "lon": 49.96826238864651,
        "alt_km": 808.944089658351,
        "timestamp": "2025-12-06T14:35:36.785096+00:00",
        "meta_object_name": "SENTINEL-3B",
        "meta_object_id": "2018-039A",
        "meta_epoch": "2025-12-06T04:36:50.184000",
        "meta_mean_motion": 14.26738958,
        "meta_eccentricity": 0.00015022,
        "meta_inclination": 98.6274,
        "meta_ra_of_asc_node": 45.471,
        "meta_arg_of_pericenter": 109.1591,
        "meta_mean_anomaly": 250.9753,
        "meta_ephemeris_type": 0,
        "meta_classification_type": "U",
        "meta_norad_cat_id": 43437,
        "meta_element_set_no": 999,
        "meta_rev_at_epoch": 39660,
        "meta_bstar": 0.00014242399,
        "meta_mean_motion_dot": 3.01e-06,
        "meta_mean_motion_ddot": 0,
        "tle_line1": "1 43437U 18039A   25340.19224750  .00000301  00000+0  14242-3 0  9995",
        "tle_line2": "2 43437  98.6274  45.4710 0001502 109.1591 250.9753 14.26738958396602"
      },
      "geometry": {
        "type": "Point",
        "coordinates": [
          49.96826238864651,
          -25.149429283842323
        ]
      }
    },
    {
      "type": "Feature",
      "properties": {
        "norad_id": 43461,
        "name": "GAOFEN-5 01",
        "group": "resource",
        "lat": -57.36159234756798,
        "lon": -43.140655616043,
        "alt_km": 698.4608713471489,
        "timestamp": "2025-12-06T14:35:36.785106+00:00",
        "meta_object_name": "GAOFEN-5 01",
        "meta_object_id": "2018-043A",
        "meta_epoch": "2025-12-06T03:20:59.179776",
        "meta_mean_motion": 14.60398256,
        "meta_eccentricity": 0.00013889,
        "meta_inclination": 98.4316,
        "meta_ra_of_asc_node": 302.9919,
        "meta_arg_of_pericenter": 2.5299,
        "meta_mean_anomaly": 357.5907,
        "meta_ephemeris_type": 0,
        "meta_classification_type": "U",
        "meta_norad_cat_id": 43461,
        "meta_element_set_no": 999,
        "meta_rev_at_epoch": 40351,
        "meta_bstar": 0.00020465677,
        "meta_mean_motion_dot": 9.42e-06,
        "meta_mean_motion_ddot": 0,
        "tle_line1": "1 43461U 18043A   25340.13957384  .00000942  00000+0  20466-3 0  9993",
        "tle_line2": "2 43461  98.4316 302.9919 0001388   2.5299 357.5907 14.60398256403514"
      },
      "geometry": {
        "type": "Point",
        "coordinates": [
          -43.140655616043,
          -57.36159234756798
        ]
      }
    },
    {
      "type": "Feature",
      "properties": {
        "norad_id": 43484,
        "name": "GAOFEN-6",
        "group": "resource",
        "lat": -57.845849688794125,
        "lon": 57.68231142696055,
        "alt_km": 654.5391574713803,
        "timestamp": "2025-12-06T14:35:36.785133+00:00",
        "meta_object_name": "GAOFEN-6",
        "meta_object_id": "2018-048A",
        "meta_epoch": "2025-12-06T06:43:38.149824",
        "meta_mean_motion": 14.76548813,
        "meta_eccentricity": 0.00133136,
        "meta_inclination": 97.804,
        "meta_ra_of_asc_node": 44.7639,
        "meta_arg_of_pericenter": 82.7913,
        "meta_mean_anomaly": 277.4811,
        "meta_ephemeris_type": 0,
        "meta_classification_type": "U",
        "meta_norad_cat_id": 43484,
        "meta_element_set_no": 999,
        "meta_rev_at_epoch": 40492,
        "meta_bstar": 0.00025570106,
        "meta_mean_motion_dot": 1.736e-05,
        "meta_mean_motion_ddot": 0,
        "tle_line1": "1 43484U 18048A   25340.28030266  .00001736  00000+0  25570-3 0  9993",
        "tle_line2": "2 43484  97.8040  44.7639 0013313  82.7913 277.4811 14.76548813404923"
      },
      "geometry": {
        "type": "Point",
        "coordinates": [
          57.68231142696055,
          -57.845849688794125
        ]
      }
    },
    {
      "type": "Feature",
      "properties": {
        "norad_id": 43585,
        "name": "GAOFEN-11 01",
        "group": "resource",
        "lat": -49.89284653343588,
        "lon": 52.174338815280976,
        "alt_km": 423.9656562605005,
        "timestamp": "2025-12-06T14:35:36.785147+00:00",
        "meta_object_name": "GAOFEN-11 01",
        "meta_object_id": "2018-063A",
        "meta_epoch": "2025-12-06T07:03:30.559680",
        "meta_mean_motion": 15.48955036,
        "meta_eccentricity": 0.00047197,
        "meta_inclination": 97.1566,
        "meta_ra_of_asc_node": 43.2839,
        "meta_arg_of_pericenter": 342.1973,
        "meta_mean_anomaly": 17.9112,
        "meta_ephemeris_type": 0,
        "meta_classification_type": "U",
        "meta_norad_cat_id": 43585,
        "meta_element_set_no": 999,
        "meta_rev_at_epoch": 41042,
        "meta_bstar": 0.00042890942,
        "meta_mean_motion_dot": 0.00023125,
        "meta_mean_motion_ddot": 0,
        "tle_line1": "1 43585U 18063A   25340.29410370  .00023125  00000+0  42891-3 0  9992",
        "tle_line2": "2 43585  97.1566  43.2839 0004719 342.1973  17.9112 15.48955036410428"
      },
      "geometry": {
        "type": "Point",
        "coordinates": [
          52.174338815280976,
          -49.89284653343588
        ]
      }
    },
    {
      "type": "Feature",
      "properties": {
        "norad_id": 43613,
        "name": "ICESAT-2",
        "group": "resource",
        "lat": 33.47779378970166,
        "lon": 60.4096707250262,
        "alt_km": 478.2517062527004,
        "timestamp": "2025-12-06T14:35:36.785158+00:00",
        "meta_object_name": "ICESAT-2",
        "meta_object_id": "2018-070A",
        "meta_epoch": "2025-12-06T06:05:48.984288",
        "meta_mean_motion": 15.28157312,
        "meta_eccentricity": 0.0001693,
        "meta_inclination": 92.0053,
        "meta_ra_of_asc_node": 238.9864,
        "meta_arg_of_pericenter": 162.8378,
        "meta_mean_anomaly": 197.2929,
        "meta_ephemeris_type": 0,
        "meta_classification_type": "U",
        "meta_norad_cat_id": 43613,
        "meta_element_set_no": 999,
        "meta_rev_at_epoch": 40299,
        "meta_bstar": 0.00078200612,
        "meta_mean_motion_dot": 0.00021484,
        "meta_mean_motion_ddot": 0,
        "tle_line1": "1 43613U 18070A   25340.25403917  .00021484  00000+0  78201-3 0  9997",
        "tle_line2": "2 43613  92.0053 238.9864 0001693 162.8378 197.2929 15.28157312402990"
      },
      "geometry": {
        "type": "Point",
        "coordinates": [
          60.4096707250262,
          33.47779378970166
        ]
      }
    }
  ]
}